MEAN_MOTION;ECCENTRICITY;INCLINATION;RA_OF_ASC_NODE;ARG_OF_PERICENTER;MEAN_ANOMALY;BSTAR;MEAN_MOTION_DOT;MEAN_MOTION_DDOT;TYPE
12.6226524;0.000164;51.9739;250.327;139.5855;339.6574;-1.8096E-5;-1.07E-6;0;Globalstar
12.62265246;0.0001616;51.9739;246.931;141.1851;6.469;-2.0331E-5;-1.07E-6;0;Globalstar
12.62265257;0.0001613;51.9739;243.8256;143.4135;318.8039;-1.7473E-5;-1.07E-6;0;Globalstar
12.62265258;0.0001611;51.974;242.895;144.0992;267.0316;-2.0332E-5;-1.07E-6;0;Globalstar
12.62265256;0.0001601;51.974;241.9404;144.5682;251.1776;-2.2606E-5;-1.08E-6;0;Globalstar
12.62265275;0.000161;51.974;241.3937;145.0196;346.683;-1.4836E-5;-1.06E-6;0;Globalstar
12.62265288;0.0001607;51.9741;239.0577;147.27;230.6829;-1.4685E-5;-1.06E-6;0;Globalstar
12.62265284;0.0001609;51.9741;238.7527;147.375;325.6516;-1.9305E-5;-1.07E-6;0;Globalstar
12.62265294;0.0001601;51.9741;235.863;149.7997;315.9297;-1.8774E-5;-1.07E-6;0;Globalstar
12.62265303;0.0001597;51.9742;235.3631;149.9933;341.8654;-1.9645E-5;-1.07E-6;0;Globalstar
12.62265328;0.0001579;51.9742;232.5045;152.5719;285.7918;-2.1107E-5;-1.08E-6;0;Globalstar
12.62265332;0.0001566;51.9743;229.1115;155.6518;306.6102;-2.3268E-5;-1.08E-6;0;Globalstar
12.62265348;0.0001554;51.9744;226.4741;158.1798;280.3427;-2.6006E-5;-1.08E-6;0;Globalstar
12.62265337;0.0001547;51.9744;223.5821;161.2057;273.4545;-3.7842E-5;-1.11E-6;0;Globalstar
12.62265371;0.0001536;51.9744;222.5752;162.2475;335.3951;-3.6326E-5;-1.1E-6;0;Globalstar
12.62265371;0.0001533;51.9744;220.4428;164.6145;275.5967;-4.1612E-5;-1.11E-6;0;Globalstar
12.62265379;0.0001527;51.9744;219.4289;165.4198;348.0787;-3.5846E-5;-1.1E-6;0;Globalstar
12.62265372;0.0001517;51.9745;217.0511;167.7763;294.5446;-4.1095E-5;-1.11E-6;0;Globalstar
12.62265359;0.0001503;51.9746;214.4135;170.4015;268.4626;-4.8608E-5;-1.12E-6;0;Globalstar
12.62265368;0.0001492;51.9746;212.4955;172.3681;249.0882;-3.7808E-5;-1.11E-6;0;Globalstar
12.62265367;0.0001492;51.9747;211.2595;173.1095;293.1123;-3.9968E-5;-1.11E-6;0;Globalstar
12.62265378;0.0001491;51.9747;210.9998;173.36;320.5239;-3.2546E-5;-1.1E-6;0;Globalstar
12.6226536;0.0001478;51.9747;209.354;174.9733;255.1756;-3.4942E-5;-1.1E-6;0;Globalstar
12.62265369;0.0001473;51.9747;208.1157;175.9992;302.2654;-2.7964E-5;-1.09E-6;0;Globalstar
12.62265361;0.0001471;51.9747;207.8581;176.2169;326.6153;-3.0356E-5;-1.09E-6;0;Globalstar
12.62265371;0.0001454;51.9748;204.2308;179.9104;336.5641;-1.6431E-5;-1.07E-6;0;Globalstar
12.62265393;0.0001451;51.9748;202.3419;182.0371;273.6804;-9.1032E-6;-1.05E-6;0;Globalstar
12.62265383;0.000144;51.9748;201.3394;183.2115;328.8365;-1.1095E-5;-1.06E-6;0;Globalstar
12.62265407;0.0001433;51.9749;199.1983;185.6643;281.9837;-2.4729E-6;-1.04E-6;0;Globalstar
12.62265408;0.0001425;51.9749;198.2006;186.7384;329.9544;-8.5029E-7;-1.04E-6;0;Globalstar
12.62265415;0.0001421;51.9749;196.323;188.9637;250.2251;-2.9396E-6;-1.04E-6;0;Globalstar
12.62265429;0.0001409;51.9749;193.4306;192.442;243.6701;-4.576E-7;-1.04E-6;0;Globalstar
12.62265461;0.0001398;51.9749;190.2929;196.1202;243.1472;2.6543E-6;-1.03E-6;0;Globalstar
12.6226545;0.0001396;51.9749;190.0543;196.4595;239.0738;-3.0499E-6;-1.04E-6;0;Globalstar
12.62265453;0.0001383;51.9749;186.8998;200.0896;263.6087;1.7767E-7;-1.04E-6;0;Globalstar
12.62265473;0.0001373;51.9748;184.0243;203.3862;232.1767;7.3517E-6;-1.02E-6;0;Globalstar
12.62265476;0.0001367;51.9748;183.2508;204.0171;305.9544;7.0449E-6;-1.02E-6;0;Globalstar
12.62265476;0.0001359;51.9747;180.1098;207.7531;310.3639;3.4463E-6;-1.03E-6;0;Globalstar
12.62265481;0.0001361;51.9747;177.9939;210.3374;225.7765;1.3205E-5;-1.01E-6;0;Globalstar
12.62265487;0.0001354;51.9746;174.855;214.1276;226.7556;2.4874E-5;-9.9E-7;0;Globalstar
12.62265498;0.0001347;51.9745;171.9687;217.8106;210.935;3.0367E-5;-9.8E-7;0;Globalstar
12.62265504;0.0001341;51.9744;169.3101;220.9658;215.6354;3.2851E-5;-9.8E-7;0;Globalstar
12.62265521;0.0001337;51.9745;168.8085;221.503;243.7638;3.754E-5;-9.7E-7;0;Globalstar
12.62265523;0.0001334;51.9744;165.9142;224.9924;240.0672;3.7367E-5;-9.7E-7;0;Globalstar
12.62265541;0.0001332;51.9744;165.6815;225.2071;227.1434;4.4851E-5;-9.6E-7;0;Globalstar
12.62265546;0.0001329;51.9743;162.7782;228.6999;236.7942;3.8821E-5;-9.7E-7;0;Globalstar
12.6226555;0.0001328;51.9742;162.2722;229.5238;271.084;3.9862E-5;-9.7E-7;0;Globalstar
12.62265569;0.0001327;51.9742;159.651;232.8408;219.9392;3.9732E-5;-9.7E-7;0;Globalstar
12.62265571;0.0001324;51.9742;159.1307;233.6074;275.7675;3.6362E-5;-9.7E-7;0;Globalstar
12.62265585;0.0001322;51.9741;156.5024;236.9377;235.08;3.265E-5;-9.8E-7;0;Globalstar
12.62265592;0.0001321;51.9741;153.5846;240.6932;266.2183;2.5186E-5;-9.9E-7;0;Globalstar
12.62265591;0.0001316;51.974;150.2114;245.0908;256.2345;1.7214E-5;-1.01E-6;0;Globalstar
12.62265587;0.0001315;51.9739;147.5545;248.2605;258.5008;1.1856E-5;-1.02E-6;0;Globalstar
12.62265587;0.0001318;51.9739;144.4413;252.2566;220.7405;1.0786E-5;-1.02E-6;0;Globalstar
12.62265581;0.0001318;51.9738;144.1809;252.7166;248.8851;7.9106E-6;-1.02E-6;0;Globalstar
12.6226558;0.0001321;51.9738;141.0389;256.7817;254.0779;7.766E-6;-1.02E-6;0;Globalstar
12.6226558;0.0001323;51.9738;138.1499;260.4681;242.0683;6.7582E-6;-1.03E-6;0;Globalstar
12.62265583;0.0001327;51.9737;136.2893;262.6624;136.6164;7.1818E-6;-1.02E-6;0;Globalstar
12.62265586;0.0001328;51.9737;135.2684;264.0199;219.0306;9.5517E-6;-1.02E-6;0;Globalstar
12.62265587;0.0001331;51.9737;133.1279;266.5435;171.0079;4.8013E-6;-1.03E-6;0;Globalstar
12.62265587;0.0001331;51.9737;132.38;267.5968;206.1923;9.1215E-6;-1.02E-6;0;Globalstar
12.62265591;0.0001335;51.9737;129.9914;270.4014;168.0921;4.1109E-6;-1.03E-6;0;Globalstar
12.62265593;0.0001337;51.9737;129.4988;270.983;182.788;5.4213E-6;-1.03E-6;0;Globalstar
12.62265597;0.0001341;51.9737;126.6099;274.565;170.6828;-2.126E-6;-1.04E-6;0;Globalstar
12.62265598;0.0001344;51.9737;126.0887;275.2268;227.9194;-4.1669E-6;-1.05E-6;0;Globalstar
12.62265605;0.0001351;51.9738;123.207;278.4165;205.3784;-1.2164E-5;-1.06E-6;0;Globalstar
12.62265605;0.0001352;51.9738;122.9451;278.7768;235.853;-1.4519E-5;-1.06E-6;0;Globalstar
12.62265599;0.0001354;51.9738;120.0584;282.6257;220.2409;-2.4377E-5;-1.08E-6;0;Globalstar
12.62265598;0.000136;51.9739;116.9157;286.5491;226.7438;-3.64E-5;-1.1E-6;0;Globalstar
12.6226559;0.0001364;51.974;114.0278;290.2791;212.9707;-4.2458E-5;-1.11E-6;0;Globalstar
12.62265586;0.0001369;51.9741;111.8995;292.6341;147.0236;-4.6151E-5;-1.12E-6;0;Globalstar
12.62265581;0.0001376;51.9742;109.5286;295.4937;82.6061;-4.9896E-5;-1.13E-6;0;Globalstar
12.62265578;0.000138;51.9742;107.9973;297.2595;206.2539;-4.951E-5;-1.13E-6;0;Globalstar
12.62265576;0.0001387;51.9743;106.6318;298.7071;82.7273;-4.9143E-5;-1.13E-6;0;Globalstar
12.62265576;0.0001388;51.9744;104.8549;300.9005;212.389;-4.941E-5;-1.13E-6;0;Globalstar
12.62265576;0.0001388;51.9744;104.8549;300.9005;212.389;-4.941E-5;-1.13E-6;0;Globalstar
12.62265565;0.0001391;51.9745;101.9667;304.5429;199.3109;-4.9622E-5;-1.13E-6;0;Globalstar
12.62265558;0.0001393;51.9747;99.8379;307.3409;133.6932;-4.9507E-5;-1.13E-6;0;Globalstar
12.62265562;0.0001396;51.9747;98.8245;308.6048;204.9458;-4.6721E-5;-1.12E-6;0;Globalstar
12.62265561;0.0001402;51.9748;96.7077;310.9746;121.8363;-4.7871E-5;-1.12E-6;0;Globalstar
12.62265558;0.0001404;51.9749;95.931;311.9847;200.0286;-5.2547E-5;-1.13E-6;0;Globalstar
12.62265554;0.000141;51.975;93.5527;314.6619;146.8967;-5.4682E-5;-1.14E-6;0;Globalstar
12.62265563;0.0001412;51.9751;92.7941;315.66;198.1709;-5.2199E-5;-1.13E-6;0;Globalstar
12.62265551;0.0001421;51.9753;89.9196;318.8426;165.079;-6.1925E-5;-1.15E-6;0;Globalstar
12.62265551;0.0001434;51.9754;86.7627;322.5089;193.1191;-6.7286E-5;-1.16E-6;0;Globalstar
12.62265551;0.0001447;51.9756;84.1099;325.3399;189.689;-6.8906E-5;-1.16E-6;0;Globalstar
12.6226554;0.0001454;51.9758;81.4921;328.3407;133.7479;-7.231E-5;-1.17E-6;0;Globalstar
12.62265544;0.0001456;51.9758;80.732;329.3109;187.2073;-7.1946E-5;-1.17E-6;0;Globalstar
12.6226554;0.0001465;51.976;77.8411;332.3294;179.0035;-7.1539E-5;-1.17E-6;0;Globalstar
12.62265547;0.0001475;51.9762;74.7018;336.0901;180.7105;-6.2671E-5;-1.15E-6;0;Globalstar
12.62265553;0.0001483;51.9764;71.8109;339.2858;172.3791;-6.0857E-5;-1.15E-6;0;Globalstar
12.62265555;0.0001497;51.9766;69.1604;342.218;165.5481;-5.1244E-5;-1.13E-6;0;Globalstar
12.62265558;0.0001506;51.9767;67.0684;344.5352;45.442;-5.0043E-5;-1.13E-6;0;Globalstar
12.62265572;0.0001508;51.9767;65.7807;346.1237;165.8118;-4.3954E-5;-1.12E-6;0;Globalstar
12.62265572;0.0001512;51.9768;64.1782;347.8609;35.8624;-4.0885E-5;-1.11E-6;0;Globalstar
12.6226558;0.0001525;51.977;61.0397;350.9072;37.3668;-3.8207E-5;-1.11E-6;0;Globalstar
12.62265596;0.0001527;51.977;60.2751;351.7403;97.8014;-2.856E-5;-1.09E-6;0;Globalstar
12.62265597;0.0001531;51.9771;57.8726;354.3874;80.94;-3.0137E-5;-1.09E-6;0;Globalstar
12.62265602;0.0001539;51.9771;57.1006;355.1444;152.4356;-2.785E-5;-1.09E-6;0;Globalstar
12.62265602;0.0001549;51.9772;54.7345;357.3769;81.8042;-3.1641E-5;-1.09E-6;0;Globalstar
12.62265612;0.0001554;51.9772;53.9538;358.3492;166.1517;-2.5995E-5;-1.08E-6;0;Globalstar
12.62265614;0.0001557;51.9773;51.8421;0.6448;75.5301;-2.9887E-5;-1.09E-6;0;Globalstar
12.62265621;0.0001571;51.9773;50.582;1.8317;155.3388;-2.7687E-5;-1.09E-6;0;Globalstar
12.62265629;0.0001574;51.9774;48.7046;3.9113;75.3227;-2.1866E-5;-1.08E-6;0;Globalstar
12.62265602;0.0001575;51.9774;45.8125;7.0693;68.7737;-2.6127E-5;-1.08E-6;0;Globalstar
12.6226559;0.0001594;51.9775;44.5519;7.8557;149.6257;-2.0576E-5;-1.07E-6;0;Globalstar
12.6226558;0.0001599;51.9775;42.9487;9.3852;21.0677;-1.9306E-5;-1.07E-6;0;Globalstar
12.62265568;0.0001597;51.9775;41.8967;10.9891;149.5053;-7.2758E-6;-1.05E-6;0;Globalstar
12.62265499;0.0001605;51.9774;39.7501;12.649;111.8136;-1.2615E-5;-1.06E-6;0;Globalstar
12.62265465;0.0001623;51.9775;38.7523;12.8072;161.1033;-9.4749E-6;-1.05E-6;0;Globalstar
12.6226545;0.000163;51.9776;36.9198;14.8527;14.1524;-2.802E-6;-1.04E-6;0;Globalstar
